CCSDS_OMM_VERS = 2.0
CREATION_DATE  = 
ORIGINATOR     = 

OBJECT_NAME    = STARLINK-35893
OBJECT_ID      = 2025-268J
CENTER_NAME    = EARTH
REF_FRAME      = TEME
TIME_SYSTEM    = UTC
MEAN_ELEMENT_THEORY = SGP/SGP4

EPOCH          = 2025-12-28T20:00:01.000224
MEAN_MOTION    = 15.34529126
ECCENTRICITY   = .0001467
INCLINATION    = 43.0006
RA_OF_ASC_NODE = 27.0624
ARG_OF_PERICENTER = 268.3334
MEAN_ANOMALY   = 141.9971

EPHEMERIS_TYPE = 0
CLASSIFICATION_TYPE = U
NORAD_CAT_ID   = 66565
ELEMENT_SET_NO = 999
REV_AT_EPOCH   = 603
BSTAR          = -.6795E-1
MEAN_MOTION_DOT = -.2092549E-1
MEAN_MOTION_DDOT = 0

CCSDS_OMM_VERS = 2.0
CREATION_DATE  = 
ORIGINATOR     = 

OBJECT_NAME    = STARLINK-35871
OBJECT_ID      = 2025-268K
CENTER_NAME    = EARTH
REF_FRAME      = TEME
TIME_SYSTEM    = UTC
MEAN_ELEMENT_THEORY = SGP/SGP4

EPOCH          = 2025-12-28T20:00:01.000224
MEAN_MOTION    = 15.35059088
ECCENTRICITY   = .0001474
INCLINATION    = 43.0018
RA_OF_ASC_NODE = 27.0358
ARG_OF_PERICENTER = 268.5870
MEAN_ANOMALY   = 152.8382

EPHEMERIS_TYPE = 0
CLASSIFICATION_TYPE = U
NORAD_CAT_ID   = 66566
ELEMENT_SET_NO = 999
REV_AT_EPOCH   = 603
BSTAR          = -.66572E-1
MEAN_MOTION_DOT = -.208608E-1
MEAN_MOTION_DDOT = 0

CCSDS_OMM_VERS = 2.0
CREATION_DATE  = 
ORIGINATOR     = 

OBJECT_NAME    = STARLINK-35825
OBJECT_ID      = 2025-268L
CENTER_NAME    = EARTH
REF_FRAME      = TEME
TIME_SYSTEM    = UTC
MEAN_ELEMENT_THEORY = SGP/SGP4

EPOCH          = 2025-12-28T20:00:01.000224
MEAN_MOTION    = 15.35644262
ECCENTRICITY   = .0001656
INCLINATION    = 43.0012
RA_OF_ASC_NODE = 27.0068
ARG_OF_PERICENTER = 274.2023
MEAN_ANOMALY   = 159.3374

EPHEMERIS_TYPE = 0
CLASSIFICATION_TYPE = U
NORAD_CAT_ID   = 66567
ELEMENT_SET_NO = 999
REV_AT_EPOCH   = 603
BSTAR          = -.63576E-1
MEAN_MOTION_DOT = -.2002011E-1
MEAN_MOTION_DDOT = 0

CCSDS_OMM_VERS = 2.0
CREATION_DATE  = 
ORIGINATOR     = 

OBJECT_NAME    = STARLINK-35803
OBJECT_ID      = 2025-268M
CENTER_NAME    = EARTH
REF_FRAME      = TEME
TIME_SYSTEM    = UTC
MEAN_ELEMENT_THEORY = SGP/SGP4

EPOCH          = 2025-12-28T20:00:01.000224
MEAN_MOTION    = 15.38600990
ECCENTRICITY   = .0001518
INCLINATION    = 43.0005
RA_OF_ASC_NODE = 26.9992
ARG_OF_PERICENTER = 276.6593
MEAN_ANOMALY   = 159.8110

EPHEMERIS_TYPE = 0
CLASSIFICATION_TYPE = U
NORAD_CAT_ID   = 66568
ELEMENT_SET_NO = 999
REV_AT_EPOCH   = 603
BSTAR          = -.49542E-1
MEAN_MOTION_DOT = -.1745481E-1
MEAN_MOTION_DDOT = 0

CCSDS_OMM_VERS = 2.0
CREATION_DATE  = 
ORIGINATOR     = 

OBJECT_NAME    = STARLINK-35835
OBJECT_ID      = 2025-268N
CENTER_NAME    = EARTH
REF_FRAME      = TEME
TIME_SYSTEM    = UTC
MEAN_ELEMENT_THEORY = SGP/SGP4

EPOCH          = 2025-12-28T20:00:01.000224
MEAN_MOTION    = 15.37127578
ECCENTRICITY   = .0001712
INCLINATION    = 43.0007
RA_OF_ASC_NODE = 26.9396
ARG_OF_PERICENTER = 274.5765
MEAN_ANOMALY   = 186.4892

EPHEMERIS_TYPE = 0
CLASSIFICATION_TYPE = U
NORAD_CAT_ID   = 66569
ELEMENT_SET_NO = 999
REV_AT_EPOCH   = 603
BSTAR          = -.60557E-1
MEAN_MOTION_DOT = -.2001414E-1
MEAN_MOTION_DDOT = 0

CCSDS_OMM_VERS = 2.0
CREATION_DATE  = 
ORIGINATOR     = 

OBJECT_NAME    = STARLINK-35834
OBJECT_ID      = 2025-268P
CENTER_NAME    = EARTH
REF_FRAME      = TEME
TIME_SYSTEM    = UTC
MEAN_ELEMENT_THEORY = SGP/SGP4

EPOCH          = 2025-12-28T20:00:01.000224
MEAN_MOTION    = 15.27593621
ECCENTRICITY   = .0001259
INCLINATION    = 43.0014
RA_OF_ASC_NODE = 27.6640
ARG_OF_PERICENTER = 289.2669
MEAN_ANOMALY   = 231.3758

EPHEMERIS_TYPE = 0
CLASSIFICATION_TYPE = U
NORAD_CAT_ID   = 66570
ELEMENT_SET_NO = 999
REV_AT_EPOCH   = 603
BSTAR          = -.85877E-4
MEAN_MOTION_DOT = -.2625E-4
MEAN_MOTION_DDOT = 0

CCSDS_OMM_VERS = 2.0
CREATION_DATE  = 
ORIGINATOR     = 

OBJECT_NAME    = STARLINK-35836
OBJECT_ID      = 2025-268Q
CENTER_NAME    = EARTH
REF_FRAME      = TEME
TIME_SYSTEM    = UTC
MEAN_ELEMENT_THEORY = SGP/SGP4

EPOCH          = 2025-12-28T20:00:01.000224
MEAN_MOTION    = 15.27596235
ECCENTRICITY   = .0001663
INCLINATION    = 43.0012
RA_OF_ASC_NODE = 27.6124
ARG_OF_PERICENTER = 299.3183
MEAN_ANOMALY   = 242.4900

EPHEMERIS_TYPE = 0
CLASSIFICATION_TYPE = U
NORAD_CAT_ID   = 66571
ELEMENT_SET_NO = 999
REV_AT_EPOCH   = 591
BSTAR          = .7882E-3
MEAN_MOTION_DOT = .21502E-3
MEAN_MOTION_DDOT = 0

CCSDS_OMM_VERS = 2.0
CREATION_DATE  = 
ORIGINATOR     = 

OBJECT_NAME    = STARLINK-35870
OBJECT_ID      = 2025-268R
CENTER_NAME    = EARTH
REF_FRAME      = TEME
TIME_SYSTEM    = UTC
MEAN_ELEMENT_THEORY = SGP/SGP4

EPOCH          = 2025-12-28T20:00:01.000224
MEAN_MOTION    = 15.27544712
ECCENTRICITY   = .0001416
INCLINATION    = 43.0012
RA_OF_ASC_NODE = 27.5280
ARG_OF_PERICENTER = 265.9255
MEAN_ANOMALY   = 311.4488

EPHEMERIS_TYPE = 0
CLASSIFICATION_TYPE = U
NORAD_CAT_ID   = 66572
ELEMENT_SET_NO = 999
REV_AT_EPOCH   = 603
BSTAR          = -.62594E-4
MEAN_MOTION_DOT = -.1982E-4
MEAN_MOTION_DDOT = 0

CCSDS_OMM_VERS = 2.0
CREATION_DATE  = 
ORIGINATOR     = 

OBJECT_NAME    = STARLINK-35650
OBJECT_ID      = 2025-268S
CENTER_NAME    = EARTH
REF_FRAME      = TEME
TIME_SYSTEM    = UTC
MEAN_ELEMENT_THEORY = SGP/SGP4

EPOCH          = 2025-12-28T20:00:01.000224
MEAN_MOTION    = 15.27580941
ECCENTRICITY   = .0001588
INCLINATION    = 43.0010
RA_OF_ASC_NODE = 27.4757
ARG_OF_PERICENTER = 281.8785
MEAN_ANOMALY   = 316.5942

EPHEMERIS_TYPE = 0
CLASSIFICATION_TYPE = U
NORAD_CAT_ID   = 66573
ELEMENT_SET_NO = 999
REV_AT_EPOCH   = 603
BSTAR          = .4267E-3
MEAN_MOTION_DOT = .11498E-3
MEAN_MOTION_DDOT = 0

CCSDS_OMM_VERS = 2.0
CREATION_DATE  = 
ORIGINATOR     = 

OBJECT_NAME    = STARLINK-35812
OBJECT_ID      = 2025-268T
CENTER_NAME    = EARTH
REF_FRAME      = TEME
TIME_SYSTEM    = UTC
MEAN_ELEMENT_THEORY = SGP/SGP4

EPOCH          = 2025-12-28T20:00:01.000224
MEAN_MOTION    = 15.27573014
ECCENTRICITY   = .0001113
INCLINATION    = 43.0008
RA_OF_ASC_NODE = 27.4235
ARG_OF_PERICENTER = 278.9748
MEAN_ANOMALY   = 340.7740

EPHEMERIS_TYPE = 0
CLASSIFICATION_TYPE = U
NORAD_CAT_ID   = 66574
ELEMENT_SET_NO = 999
REV_AT_EPOCH   = 603
BSTAR          = -.13125E-3
MEAN_MOTION_DOT = -.3871E-4
MEAN_MOTION_DDOT = 0

CCSDS_OMM_VERS = 2.0
CREATION_DATE  = 
ORIGINATOR     = 

OBJECT_NAME    = STARLINK-35810
OBJECT_ID      = 2025-268U
CENTER_NAME    = EARTH
REF_FRAME      = TEME
TIME_SYSTEM    = UTC
MEAN_ELEMENT_THEORY = SGP/SGP4

EPOCH          = 2025-12-28T20:00:01.000224
MEAN_MOTION    = 15.27517358
ECCENTRICITY   = .0002003
INCLINATION    = 43.0008
RA_OF_ASC_NODE = 27.3732
ARG_OF_PERICENTER = 258.4070
MEAN_ANOMALY   = 22.5257

EPHEMERIS_TYPE = 0
CLASSIFICATION_TYPE = U
NORAD_CAT_ID   = 66575
ELEMENT_SET_NO = 999
REV_AT_EPOCH   = 603
BSTAR          = .82481E-3
MEAN_MOTION_DOT = .22461E-3
MEAN_MOTION_DDOT = 0

CCSDS_OMM_VERS = 2.0
CREATION_DATE  = 
ORIGINATOR     = 

OBJECT_NAME    = STARLINK-35814
OBJECT_ID      = 2025-268V
CENTER_NAME    = EARTH
REF_FRAME      = TEME
TIME_SYSTEM    = UTC
MEAN_ELEMENT_THEORY = SGP/SGP4

EPOCH          = 2025-12-28T20:00:01.000224
MEAN_MOTION    = 15.27561413
ECCENTRICITY   = .0001629
INCLINATION    = 43.0010
RA_OF_ASC_NODE = 27.3215
ARG_OF_PERICENTER = 271.1320
MEAN_ANOMALY   = 31.0792

EPHEMERIS_TYPE = 0
CLASSIFICATION_TYPE = U
NORAD_CAT_ID   = 66576
ELEMENT_SET_NO = 999
REV_AT_EPOCH   = 603
BSTAR          = -.75463E-5
MEAN_MOTION_DOT = -.47E-5
MEAN_MOTION_DDOT = 0

