STARLINK-35893          
1 66565U 25268J   25362.83334491 -.02092549  00000+0 -67950-1 0  9994
2 66565  43.0006  27.0624 0001467 268.3334 141.9971 15.34529126  6030
STARLINK-35871          
1 66566U 25268K   25362.83334491 -.02086080  00000+0 -66572-1 0  9997
2 66566  43.0018  27.0358 0001474 268.5870 152.8382 15.35059088  6036
STARLINK-35825          
1 66567U 25268L   25362.83334491 -.02002011  00000+0 -63576-1 0  9991
2 66567  43.0012  27.0068 0001656 274.2023 159.3374 15.35644262  6032
STARLINK-35803          
1 66568U 25268M   25362.83334491 -.01745481  00000+0 -49542-1 0  9993
2 66568  43.0005  26.9992 0001518 276.6593 159.8110 15.38600990  6030
STARLINK-35835          
1 66569U 25268N   25362.83334491 -.02001414  00000+0 -60557-1 0  9995
2 66569  43.0007  26.9396 0001712 274.5765 186.4892 15.37127578  6033
STARLINK-35834          
1 66570U 25268P   25362.83334491 -.00002625  00000+0 -85877-4 0  9995
2 66570  43.0014  27.6640 0001259 289.2669 231.3758 15.27593621  6031
STARLINK-35836          
1 66571U 25268Q   25362.83334491  .00021502  00000+0  78820-3 0  9998
2 66571  43.0012  27.6124 0001663 299.3183 242.4900 15.27596235  5911
STARLINK-35870          
1 66572U 25268R   25362.83334491 -.00001982  00000+0 -62594-4 0  9993
2 66572  43.0012  27.5280 0001416 265.9255 311.4488 15.27544712  6034
STARLINK-35650          
1 66573U 25268S   25362.83334491  .00011498  00000+0  42670-3 0  9997
2 66573  43.0010  27.4757 0001588 281.8785 316.5942 15.27580941  6031
STARLINK-35812          
1 66574U 25268T   25362.83334491 -.00003871  00000+0 -13125-3 0  9999
2 66574  43.0008  27.4235 0001113 278.9748 340.7740 15.27573014  6038
STARLINK-35810          
1 66575U 25268U   25362.83334491  .00022461  00000+0  82481-3 0  9995
2 66575  43.0008  27.3732 0002003 258.4070  22.5257 15.27517358  6037
STARLINK-35814          
1 66576U 25268V   25362.83334491 -.00000470  00000+0 -75463-5 0  9998
2 66576  43.0010  27.3215 0001629 271.1320  31.0792 15.27561413  6030
